{
  "type": "FeatureCollection",
  "name": "jingzhang_concept_building_footprints",
  "features": [
    {
      "type": "Feature",
      "id": "BLDG-001",
      "properties": {
        "id": "BLDG-001",
        "layer": "BUILDING_FOOTPRINT",
        "source_type": "agent_generated_design",
        "confidence": "low",
        "geometry_role": "design_proposal",
        "label_zh": "概念性更新单元 1",
        "label_en": "Concept renewal unit 1",
        "renewal_strategy": "retain",
        "usage_note": "Conceptual massing placeholder; not an existing-building survey, ownership decision or demolition instruction.",
        "area_sqm_declared": 1651.128
      },
      "geometry": {
        "type": "Polygon",
        "coordinates": [
          [
            [
              116.34216,
              39.950250000000004
            ],
            [
              116.342508,
              39.950250000000004
            ],
            [
              116.342508,
              39.94975
            ],
            [
              116.34216,
              39.94975
            ],
            [
              116.34216,
              39.950250000000004
            ]
          ]
        ]
      }
    },
    {
      "type": "Feature",
      "id": "BLDG-002",
      "properties": {
        "id": "BLDG-002",
        "layer": "BUILDING_FOOTPRINT",
        "source_type": "agent_generated_design",
        "confidence": "low",
        "geometry_role": "design_proposal",
        "label_zh": "概念性更新单元 2",
        "label_en": "Concept renewal unit 2",
        "renewal_strategy": "retain",
        "usage_note": "Conceptual massing placeholder; not an existing-building survey, ownership decision or demolition instruction.",
        "area_sqm_declared": 3226.52
      },
      "geometry": {
        "type": "Polygon",
        "coordinates": [
          [
            [
              116.35266,
              39.94625
            ],
            [
              116.35333999999999,
              39.94625
            ],
            [
              116.35333999999999,
              39.94575
            ],
            [
              116.35266,
              39.94575
            ],
            [
              116.35266,
              39.94625
            ]
          ]
        ]
      }
    },
    {
      "type": "Feature",
      "id": "BLDG-003",
      "properties": {
        "id": "BLDG-003",
        "layer": "BUILDING_FOOTPRINT",
        "source_type": "agent_generated_design",
        "confidence": "low",
        "geometry_role": "design_proposal",
        "label_zh": "概念性更新单元 3",
        "label_en": "Concept renewal unit 3",
        "renewal_strategy": "new_concept",
        "usage_note": "Conceptual massing placeholder; not an existing-building survey, ownership decision or demolition instruction.",
        "area_sqm_declared": 3225.405
      },
      "geometry": {
        "type": "Polygon",
        "coordinates": [
          [
            [
              116.35306,
              39.97025
            ],
            [
              116.35373999999999,
              39.97025
            ],
            [
              116.35373999999999,
              39.96975
            ],
            [
              116.35306,
              39.96975
            ],
            [
              116.35306,
              39.97025
            ]
          ]
        ]
      }
    },
    {
      "type": "Feature",
      "id": "BLDG-004",
      "properties": {
        "id": "BLDG-004",
        "layer": "BUILDING_FOOTPRINT",
        "source_type": "agent_generated_design",
        "confidence": "low",
        "geometry_role": "design_proposal",
        "label_zh": "概念性更新单元 4",
        "label_en": "Concept renewal unit 4",
        "renewal_strategy": "renovate",
        "usage_note": "Conceptual massing placeholder; not an existing-building survey, ownership decision or demolition instruction.",
        "area_sqm_declared": 1706.461
      },
      "geometry": {
        "type": "Polygon",
        "coordinates": [
          [
            [
              116.35253999999999,
              40.01475
            ],
            [
              116.3521799999,
              40.01475
            ],
            [
              116.3521799999,
              40.01525
            ],
            [
              116.35253999999999,
              40.01525
            ],
            [
              116.35253999999999,
              40.01475
            ]
          ]
        ]
      }
    }
  ]
}
