{
  "type": "FeatureCollection",
  "name": "jingzhang_bluegreen_spine",
  "features": [
    {
      "type": "Feature",
      "id": "GREEN-001",
      "properties": {
        "id": "GREEN-001",
        "layer": "GREEN_SPACE",
        "source_type": "agent_generated_design",
        "confidence": "low",
        "geometry_role": "design_proposal",
        "label_zh": "遗址公园蓝绿慢行脊",
        "label_en": "Heritage blue-green mobility spine",
        "green_space_type": "conceptual blue-green network",
        "area_sqm_declared": 2673355.543
      },
      "geometry": {
        "type": "Polygon",
        "coordinates": [
          [
            [
              116.35031818663789,
              39.94636845911322
            ],
            [
              116.35025537111177,
              39.94619290147851
            ],
            [
              116.35017565040226,
              39.94602434620003
            ],
            [
              116.35007979226337,
              39.94586441655727
            ],
            [
              116.3499687198614,
              39.945714652760095
            ],
            [
              116.34984350288426,
              39.94557649711575
            ],
            [
              116.34970534723992,
              39.94545128013861
            ],
            [
              116.34955558344274,
              39.94534020773663
            ],
            [
              116.34939565379997,
              39.94524434959774
            ],
            [
              116.3492270985215,
              39.945164628888236
            ],
            [
              116.34905154088679,
              39.945101813362115
            ],
            [
              116.34904828998792,
              39.94510099905434
            ],
            [
              116.34914969009297,
              39.940030993801855
            ],
            [
              116.34914526583542,
              39.93987894836692
            ],
            [
              116.34912595982316,
              39.93972806872538
            ],
            [
              116.34909195798362,
              39.93957980793067
            ],
            [
              116.34904358777311,
              39.93943559381529
            ],
            [
              116.3489813150232,
              39.939296815240006
            ],
            [
              116.34890573945451,
              39.93916480871835
            ],
            [
              116.34881758890108,
              39.93904084554531
            ],
            [
              116.34878203013929,
              39.939
            ],
            [
              116.34641626849721,
              39.939
            ],
            [
              116.34632869901293,
              39.93911326790952
            ],
            [
              116.34624790573092,
              39.93924214705416
            ],
            [
              116.34618013385585,
              39.93937832473694
            ],
            [
              116.34612603606793,
              39.93952048949236
            ],
            [
              116.34608613335841,
              39.93966727219609
            ],
            [
              116.34606081001223,
              39.939817259250454
            ],
            [
              116.34605030990703,
              39.93996900619814
            ],
            [
              116.34555030990703,
              39.964969006198146
            ],
            [
              116.34555060724296,
              39.9650433829972
            ],
            [
              116.34616944582945,
              39.987144761085744
            ],
            [
              116.34615649711574,
              39.98715649711575
            ],
            [
              116.3460312801386,
              39.98729465276009
            ],
            [
              116.34592020773663,
              39.98744441655727
            ],
            [
              116.34582434959773,
              39.98760434620003
            ],
            [
              116.34574462888823,
              39.98777290147851
            ],
            [
              116.3456818133621,
              39.98794845911322
            ],
            [
              116.34563650796723,
              39.98812932838817
            ],
            [
              116.34560914901932,
              39.988313767433375
            ],
            [
              116.34559999999999,
              39.9885
            ],
            [
              116.34560914901932,
              39.98868623256663
            ],
            [
              116.34563650796723,
              39.988870671611835
            ],
            [
              116.3456818133621,
              39.989051540886784
            ],
            [
              116.34574462888823,
              39.989227098521496
            ],
            [
              116.34582434959773,
              39.989395653799974
            ],
            [
              116.34592020773663,
              39.98955558344274
            ],
            [
              116.3460312801386,
              39.98970534723991
            ],
            [
              116.34615649711574,
              39.989843502884256
            ],
            [
              116.34624731535983,
              39.989925815742694
            ],
            [
              116.34625012222378,
              39.990026060883444
            ],
            [
              116.3464500245977,
              40.02550873225579
            ],
            [
              116.34645834406366,
              40.02566061436411
            ],
            [
              116.34648151051904,
              40.02581094966829
            ],
            [
              116.3465193008582,
              40.025958290357195
            ],
            [
              116.34657135113954,
              40.02610121745943
            ],
            [
              116.34663716009038,
              40.02623835450887
            ],
            [
              116.34671609393456,
              40.02636838080076
            ],
            [
              116.346807392496,
              40.02649004411084
            ],
            [
              116.34681651867741,
              40.0265
            ],
            [
              116.34918266694633,
              40.0265
            ],
            [
              116.34920368687285,
              40.02647654386083
            ],
            [
              116.3492936088282,
              40.026353859590095
            ],
            [
              116.34937107262338,
              40.02622295218474
            ],
            [
              116.3494353322397,
              40.02608508235463
            ],
            [
              116.34948576882189,
              40.02594157786162
            ],
            [
              116.34952189663815,
              40.02579382073241
            ],
            [
              116.34954336775782,
              40.02564323394893
            ],
            [
              116.3495499754023,
              40.025491267744215
            ],
            [
              116.34950978371677,
              40.0183572435627
            ],
            [
              116.34955558344274,
              40.01832979226338
            ],
            [
              116.34970534723992,
              40.018218719861395
            ],
            [
              116.34984350288426,
              40.018093502884255
            ],
            [
              116.3499687198614,
              40.01795534723991
            ],
            [
              116.35007979226337,
              40.01780558344274
            ],
            [
              116.35017565040226,
              40.017645653799974
            ],
            [
              116.35025537111177,
              40.017477098521496
            ],
            [
              116.35031818663789,
              40.017301540886784
            ],
            [
              116.35036349203277,
              40.017120671611835
            ],
            [
              116.35039085098067,
              40.01693623256663
            ],
            [
              116.35040000000001,
              40.01675
            ],
            [
              116.35039085098067,
              40.016563767433375
            ],
            [
              116.35036349203277,
              40.01637932838817
            ],
            [
              116.35031818663789,
              40.01619845911322
            ],
            [
              116.35025537111177,
              40.01602290147851
            ],
            [
              116.35017565040226,
              40.01585434620003
            ],
            [
              116.35007979226337,
              40.01569441655727
            ],
            [
              116.3499687198614,
              40.01554465276009
            ],
            [
              116.34984350288426,
              40.01540649711575
            ],
            [
              116.34970534723992,
              40.01528128013861
            ],
            [
              116.34955558344274,
              40.015170207736624
            ],
            [
              116.34949161257033,
              40.01513186507128
            ],
            [
              116.3493499754023,
              39.989991267744216
            ],
            [
              116.34934939275705,
              39.989956617002804
            ],
            [
              116.34932346104107,
              39.98903048428899
            ],
            [
              116.34936349203277,
              39.988870671611835
            ],
            [
              116.34939085098067,
              39.98868623256663
            ],
            [
              116.3494,
              39.9885
            ],
            [
              116.34939085098067,
              39.988313767433375
            ],
            [
              116.34936349203277,
              39.98812932838817
            ],
            [
              116.34931818663789,
              39.98794845911322
            ],
            [
              116.3492910399811,
              39.98787258929008
            ],
            [
              116.34923652471639,
              39.9859256155507
            ],
            [
              116.34923872805899,
              39.98592761254403
            ],
            [
              116.34933331572037,
              39.98599776353476
            ],
            [
              116.3494343239158,
              39.98605830551722
            ],
            [
              116.34954077988115,
              39.98610865543901
            ],
            [
              116.34965165838729,
              39.98614832840288
            ],
            [
              116.34976589161357,
              39.986176942336485
            ],
            [
              116.3498823794316,
              39.98619422167201
            ],
            [
              116.35,
              39.9862
            ],
            [
              116.35011762056838,
              39.98619422167201
            ],
            [
              116.35023410838642,
              39.986176942336485
            ],
            [
              116.3503483416127,
              39.98614832840288
            ],
            [
              116.35045922011884,
              39.98610865543901
            ],
            [
              116.35056567608419,
              39.98605830551722
            ],
            [
              116.35066668427962,
              39.98599776353476
            ],
            [
              116.350761271941,
              39.98592761254403
            ],
            [
              116.35084852813742,
              39.985848528137424
            ],
            [
              116.35092761254403,
              39.985761271940994
            ],
            [
              116.35099776353476,
              39.98566668427962
            ],
            [
              116.35105830551721,
              39.98556567608419
            ],
            [
              116.351108655439,
              39.98545922011884
            ],
            [
              116.35114832840287,
              39.985348341612706
            ],
            [
              116.35117694233648,
              39.98523410838642
            ],
            [
              116.351194221672,
              39.985117620568396
            ],
            [
              116.35119999999999,
              39.985
            ],
            [
              116.351194221672,
              39.9848823794316
            ],
            [
              116.35117694233648,
              39.98476589161358
            ],
            [
              116.35114832840287,
              39.98465165838729
            ],
            [
              116.351108655439,
              39.98454077988116
            ],
            [
              116.35105830551721,
              39.984434323915806
            ],
            [
              116.35099776353476,
              39.98433331572038
            ],
            [
              116.35092761254403,
              39.984238728059005
            ],
            [
              116.35084852813742,
              39.984151471862575
            ],
            [
              116.350761271941,
              39.98407238745597
            ],
            [
              116.35066668427962,
              39.98400223646524
            ],
            [
              116.35056567608419,
              39.98394169448278
            ],
            [
              116.35045922011884,
              39.98389134456099
            ],
            [
              116.3503483416127,
              39.98385167159712
            ],
            [
              116.35023410838642,
              39.983823057663514
            ],
            [
              116.35011762056838,
              39.98380577832799
            ],
            [
              116.35,
              39.9838
            ],
            [
              116.3498823794316,
              39.98380577832799
            ],
            [
              116.34976589161357,
              39.983823057663514
            ],
            [
              116.34965165838729,
              39.98385167159712
            ],
            [
              116.34954077988115,
              39.98389134456099
            ],
            [
              116.3494343239158,
              39.98394169448278
            ],
            [
              116.34933331572037,
              39.98400223646524
            ],
            [
              116.34923872805899,
              39.98407238745597
            ],
            [
              116.3491859731296,
              39.98412020173687
            ],
            [
              116.34865043393232,
              39.96499380183429
            ],
            [
              116.34897516360599,
              39.94875731815079
            ],
            [
              116.34905154088679,
              39.9487381866379
            ],
            [
              116.3492270985215,
              39.948675371111776
            ],
            [
              116.34939565379997,
              39.94859565040227
            ],
            [
              116.34955558344274,
              39.948499792263384
            ],
            [
              116.34970534723992,
              39.9483887198614
            ],
            [
              116.34984350288426,
              39.94826350288426
            ],
            [
              116.3499687198614,
              39.948125347239916
            ],
            [
              116.35007979226337,
              39.94797558344274
            ],
            [
              116.35017565040226,
              39.94781565379998
            ],
            [
              116.35025537111177,
              39.9476470985215
            ],
            [
              116.35031818663789,
              39.94747154088679
            ],
            [
              116.35036349203277,
              39.94729067161184
            ],
            [
              116.35039085098067,
              39.94710623256663
            ],
            [
              116.35040000000001,
              39.946920000000006
            ],
            [
              116.35039085098067,
              39.94673376743338
            ],
            [
              116.35036349203277,
              39.94654932838817
            ],
            [
              116.35031818663789,
              39.94636845911322
            ]
          ]
        ]
      }
    }
  ]
}
