{
  "type": "FeatureCollection",
  "name": "jingzhang_concept_phasing",
  "features": [
    {
      "type": "Feature",
      "id": "PHASE-001",
      "properties": {
        "id": "PHASE-001",
        "layer": "PHASE",
        "source_type": "agent_generated_design",
        "confidence": "low",
        "geometry_role": "design_proposal",
        "label_zh": "近期：可逆场景与公共空间试点",
        "label_en": "Near-term: reversible pilots and commons",
        "timeframe": "2026–2028",
        "implementation_status": "conceptual sequencing; subject to professional, ownership, funding and approvals review",
        "area_sqm_declared": 4232697.16
      },
      "geometry": {
        "type": "Polygon",
        "coordinates": [
          [
            [
              116.355,
              39.96875
            ],
            [
              116.3553,
              39.965
            ],
            [
              116.3553,
              39.939
            ],
            [
              116.3407,
              39.939
            ],
            [
              116.3398736111111,
              39.96875
            ],
            [
              116.355,
              39.96875
            ]
          ]
        ]
      }
    },
    {
      "type": "Feature",
      "id": "PHASE-002",
      "properties": {
        "id": "PHASE-002",
        "layer": "PHASE",
        "source_type": "agent_generated_design",
        "confidence": "low",
        "geometry_role": "design_proposal",
        "label_zh": "中期：更新协同与服务网络",
        "label_en": "Mid-term: renewal coordination and services",
        "timeframe": "2028–2032",
        "implementation_status": "conceptual sequencing; subject to professional, ownership, funding and approvals review",
        "area_sqm_declared": 3853523.434
      },
      "geometry": {
        "type": "Polygon",
        "coordinates": [
          [
            [
              116.35376575342467,
              39.9985
            ],
            [
              116.3533,
              39.99
            ],
            [
              116.355000000008,
              39.9687499999
            ],
            [
              116.33987361111389,
              39.9687499999
            ],
            [
              116.3397,
              39.975
            ],
            [
              116.34121612903226,
              39.9985
            ],
            [
              116.35376575342467,
              39.9985
            ]
          ]
        ]
      }
    },
    {
      "type": "Feature",
      "id": "PHASE-003",
      "properties": {
        "id": "PHASE-003",
        "layer": "PHASE",
        "source_type": "agent_generated_design",
        "confidence": "low",
        "geometry_role": "design_proposal",
        "label_zh": "远期：开放生态与长期运营",
        "label_en": "Long-term: open ecosystem and stewardship",
        "timeframe": "2032+",
        "implementation_status": "conceptual sequencing; subject to professional, ownership, funding and approvals review",
        "area_sqm_declared": 3326616.048
      },
      "geometry": {
        "type": "Polygon",
        "coordinates": [
          [
            [
              116.34121612902581,
              39.9984999999
            ],
            [
              116.3417,
              40.006
            ],
            [
              116.3427,
              40.0265
            ],
            [
              116.3553,
              40.0265
            ],
            [
              116.35376575341918,
              39.9984999999
            ],
            [
              116.34121612902581,
              39.9984999999
            ]
          ]
        ]
      }
    }
  ]
}
