{
  "type": "FeatureCollection",
  "name": "jingzhang_public_rooms",
  "features": [
    {
      "type": "Feature",
      "id": "PUBLIC-001",
      "properties": {
        "id": "PUBLIC-001",
        "layer": "PUBLIC_SPACE",
        "source_type": "agent_generated_design",
        "confidence": "low",
        "geometry_role": "design_proposal",
        "label_zh": "智脉公共客厅与场景窗网络",
        "label_en": "Intelligence-spine public rooms",
        "public_space_type": "conceptual civic commons",
        "design_note_zh": "公共空间为概念方案中的连续交往网络，非工程或审批边界。",
        "area_sqm_declared": 1651317.228
      },
      "geometry": {
        "type": "Polygon",
        "coordinates": [
          [
            [
              116.34874723736888,
              39.94448337736631
            ],
            [
              116.34869059370686,
              39.94436361440528
            ],
            [
              116.3486224839766,
              39.944249980185425
            ],
            [
              116.34854356411203,
              39.94414356906638
            ],
            [
              116.3484545941546,
              39.9440454058454
            ],
            [
              116.34841990075047,
              39.94401396157678
            ],
            [
              116.34849982005399,
              39.940017996401075
            ],
            [
              116.34849725113024,
              39.93992971195498
            ],
            [
              116.34848604118764,
              39.93984210442119
            ],
            [
              116.34846629818404,
              39.93975601750813
            ],
            [
              116.34843821225535,
              39.939672280279844
            ],
            [
              116.34840205388444,
              39.939591699171615
            ],
            [
              116.34835817129617,
              39.93951505022356
            ],
            [
              116.34830698710385,
              39.93944307160695
            ],
            [
              116.34824899423926,
              39.93937645651522
            ],
            [
              116.34818475120537,
              39.93931584648811
            ],
            [
              116.3481148766977,
              39.93926182523331
            ],
            [
              116.34804004364597,
              39.939214913005046
            ],
            [
              116.34796097273339,
              39.939175561593714
            ],
            [
              116.34787842545605,
              39.93914414997492
            ],
            [
              116.34779319678937,
              39.93912098065972
            ],
            [
              116.34770610753199,
              39.93910627678129
            ],
            [
              116.34761799640108,
              39.93910017994602
            ],
            [
              116.34752971195499,
              39.93910274886975
            ],
            [
              116.34744210442119,
              39.93911395881236
            ],
            [
              116.34735601750813,
              39.93913370181596
            ],
            [
              116.34727228027985,
              39.939161787744645
            ],
            [
              116.34719169917162,
              39.93919794611556
            ],
            [
              116.34711505022356,
              39.93924182870383
            ],
            [
              116.34704307160696,
              39.93929301289614
            ],
            [
              116.34697645651522,
              39.93935100576074
            ],
            [
              116.34691584648812,
              39.93941524879464
            ],
            [
              116.34686182523332,
              39.939485123302305
            ],
            [
              116.34681491300505,
              39.939559956354024
            ],
            [
              116.34677556159372,
              39.939639027266615
            ],
            [
              116.34674414997492,
              39.93972157454395
            ],
            [
              116.34672098065973,
              39.93980680321063
            ],
            [
              116.34670627678129,
              39.93989389246801
            ],
            [
              116.34670017994601,
              39.93998200359892
            ],
            [
              116.34662026894016,
              39.94397755389139
            ],
            [
              116.34654540584539,
              39.9440454058454
            ],
            [
              116.34645643588796,
              39.94414356906638
            ],
            [
              116.3463775160234,
              39.944249980185425
            ],
            [
              116.34630940629313,
              39.94436361440528
            ],
            [
              116.34625276263111,
              39.94448337736631
            ],
            [
              116.34620813054676,
              39.9446081156857
            ],
            [
              116.34617593987146,
              39.94473662806528
            ],
            [
              116.34615650061899,
              39.944867676860554
            ],
            [
              116.34615,
              39.945
            ],
            [
              116.34615650061899,
              39.94513232313945
            ],
            [
              116.34617593987146,
              39.94526337193472
            ],
            [
              116.34620813054676,
              39.9453918843143
            ],
            [
              116.34625276263111,
              39.94551662263369
            ],
            [
              116.34630940629313,
              39.94563638559472
            ],
            [
              116.3463775160234,
              39.945750019814575
            ],
            [
              116.34645643588796,
              39.945856430933624
            ],
            [
              116.34654540584539,
              39.9459545941546
            ],
            [
              116.34658009924952,
              39.94598603842322
            ],
            [
              116.34641585427731,
              39.9541982870341
            ],
            [
              116.3463775160234,
              39.95424998018542
            ],
            [
              116.34630940629313,
              39.95436361440528
            ],
            [
              116.34625276263111,
              39.95448337736631
            ],
            [
              116.34620813054676,
              39.9546081156857
            ],
            [
              116.34617593987146,
              39.95473662806528
            ],
            [
              116.34615650061899,
              39.95486767686055
            ],
            [
              116.34615,
              39.955
            ],
            [
              116.34615650061899,
              39.955132323139445
            ],
            [
              116.34617593987146,
              39.95526337193472
            ],
            [
              116.34620813054676,
              39.955391884314295
            ],
            [
              116.34625276263111,
              39.95551662263369
            ],
            [
              116.34630940629313,
              39.955636385594715
            ],
            [
              116.3463775160234,
              39.95575001981457
            ],
            [
              116.34638462783825,
              39.95575960898685
            ],
            [
              116.34620017994601,
              39.96498200359893
            ],
            [
              116.34620035259269,
              39.965025190127406
            ],
            [
              116.34621605442699,
              39.965585969924014
            ],
            [
              116.34620813054676,
              39.965608115685704
            ],
            [
              116.34617593987146,
              39.96573662806528
            ],
            [
              116.34615650061899,
              39.965867676860555
            ],
            [
              116.34615,
              39.966
            ],
            [
              116.34615650061899,
              39.96613232313945
            ],
            [
              116.34617593987146,
              39.96626337193472
            ],
            [
              116.34620813054676,
              39.9663918843143
            ],
            [
              116.34624120854029,
              39.966484331113094
            ],
            [
              116.34648285114997,
              39.975114424315976
            ],
            [
              116.34645643588796,
              39.975143569066375
            ],
            [
              116.3463775160234,
              39.975249980185424
            ],
            [
              116.34630940629313,
              39.97536361440528
            ],
            [
              116.34625276263111,
              39.97548337736631
            ],
            [
              116.34620813054676,
              39.9756081156857
            ],
            [
              116.34617593987146,
              39.97573662806528
            ],
            [
              116.34615650061899,
              39.97586767686055
            ],
            [
              116.34615,
              39.976
            ],
            [
              116.34615650061899,
              39.976132323139446
            ],
            [
              116.34617593987146,
              39.97626337193472
            ],
            [
              116.34620813054676,
              39.976391884314296
            ],
            [
              116.34625276263111,
              39.97651662263369
            ],
            [
              116.34630940629313,
              39.976636385594716
            ],
            [
              116.3463775160234,
              39.976750019814574
            ],
            [
              116.34645643588796,
              39.97685643093362
            ],
            [
              116.34653402429241,
              39.97694203654603
            ],
            [
              116.34678365260852,
              39.98585733354969
            ],
            [
              116.34674998018542,
              39.98587751602339
            ],
            [
              116.34664356906637,
              39.985956435887964
            ],
            [
              116.34654540584539,
              39.9860454058454
            ],
            [
              116.34645643588796,
              39.98614356906638
            ],
            [
              116.3463775160234,
              39.98624998018543
            ],
            [
              116.34630940629313,
              39.986363614405285
            ],
            [
              116.34625276263111,
              39.98648337736631
            ],
            [
              116.34620813054676,
              39.986608115685705
            ],
            [
              116.34617593987146,
              39.98673662806528
            ],
            [
              116.34615650061899,
              39.986867676860555
            ],
            [
              116.34615,
              39.987
            ],
            [
              116.34615650061899,
              39.98713232313945
            ],
            [
              116.34617593987146,
              39.98726337193472
            ],
            [
              116.34620813054676,
              39.9873918843143
            ],
            [
              116.34625276263111,
              39.98751662263369
            ],
            [
              116.34630940629313,
              39.98763638559472
            ],
            [
              116.346377504147,
              39.987750000000005
            ],
            [
              116.34630940629313,
              39.987863614405285
            ],
            [
              116.34625276263111,
              39.98798337736631
            ],
            [
              116.34620813054676,
              39.988108115685705
            ],
            [
              116.34617593987146,
              39.98823662806528
            ],
            [
              116.34615650061899,
              39.988367676860555
            ],
            [
              116.34615,
              39.9885
            ],
            [
              116.34615650061899,
              39.98863232313945
            ],
            [
              116.34617593987146,
              39.98876337193472
            ],
            [
              116.34620813054676,
              39.9888918843143
            ],
            [
              116.34625276263111,
              39.98901662263369
            ],
            [
              116.34630940629313,
              39.98913638559472
            ],
            [
              116.3463775160234,
              39.98925001981458
            ],
            [
              116.34645643588796,
              39.989356430933626
            ],
            [
              116.34654540584539,
              39.9894545941546
            ],
            [
              116.34664356906637,
              39.98954356411204
            ],
            [
              116.34674998018542,
              39.98962248397661
            ],
            [
              116.34686361440528,
              39.989690593706875
            ],
            [
              116.34689135121182,
              39.98970371223937
            ],
            [
              116.34690007096866,
              39.990015132126075
            ],
            [
              116.34693814996288,
              39.99677415359983
            ],
            [
              116.34686361440528,
              39.996809406293124
            ],
            [
              116.34674998018542,
              39.99687751602339
            ],
            [
              116.34664356906637,
              39.99695643588796
            ],
            [
              116.34654540584539,
              39.9970454058454
            ],
            [
              116.34645643588796,
              39.997143569066374
            ],
            [
              116.3463775160234,
              39.99724998018542
            ],
            [
              116.34630940629313,
              39.99736361440528
            ],
            [
              116.34625276263111,
              39.99748337736631
            ],
            [
              116.34620813054676,
              39.9976081156857
            ],
            [
              116.34617593987146,
              39.997736628065276
            ],
            [
              116.34615650061899,
              39.99786767686055
            ],
            [
              116.34615,
              39.998
            ],
            [
              116.34615650061899,
              39.998132323139444
            ],
            [
              116.34617593987146,
              39.99826337193472
            ],
            [
              116.34620813054676,
              39.998391884314294
            ],
            [
              116.34625276263111,
              39.99851662263369
            ],
            [
              116.34630940629313,
              39.998636385594715
            ],
            [
              116.3463775160234,
              39.99875001981457
            ],
            [
              116.34645643588796,
              39.99885643093362
            ],
            [
              116.34654540584539,
              39.9989545941546
            ],
            [
              116.34664356906637,
              39.999043564112036
            ],
            [
              116.34674998018542,
              39.999122483976606
            ],
            [
              116.34686361440528,
              39.99919059370687
            ],
            [
              116.34695199921927,
              39.999232396610616
            ],
            [
              116.34699434536917,
              40.00674883821693
            ],
            [
              116.3469833773663,
              40.00675276263111
            ],
            [
              116.34686361440528,
              40.00680940629313
            ],
            [
              116.34674998018542,
              40.006877516023394
            ],
            [
              116.34664356906637,
              40.006956435887965
            ],
            [
              116.34654540584539,
              40.0070454058454
            ],
            [
              116.34645643588796,
              40.00714356906638
            ],
            [
              116.3463775160234,
              40.00724998018543
            ],
            [
              116.34630940629313,
              40.007363614405286
            ],
            [
              116.34625276263111,
              40.00748337736631
            ],
            [
              116.34620813054676,
              40.007608115685706
            ],
            [
              116.34617593987146,
              40.00773662806528
            ],
            [
              116.34615650061899,
              40.007867676860556
            ],
            [
              116.34615,
              40.008
            ],
            [
              116.34615650061899,
              40.00813232313945
            ],
            [
              116.34617593987146,
              40.008263371934724
            ],
            [
              116.34620813054676,
              40.0083918843143
            ],
            [
              116.34625276263111,
              40.00851662263369
            ],
            [
              116.34630940629313,
              40.00863638559472
            ],
            [
              116.3463775160234,
              40.00875001981458
            ],
            [
              116.34645643588796,
              40.008856430933626
            ],
            [
              116.34654540584539,
              40.0089545941546
            ],
            [
              116.34664356906637,
              40.00904356411204
            ],
            [
              116.34674998018542,
              40.00912248397661
            ],
            [
              116.34686361440528,
              40.009190593706876
            ],
            [
              116.3469833773663,
              40.009247237368896
            ],
            [
              116.34700847144215,
              40.00925621617281
            ],
            [
              116.34705057005922,
              40.01672872070115
            ],
            [
              116.3469833773663,
              40.01675276263111
            ],
            [
              116.34686361440528,
              40.01680940629313
            ],
            [
              116.34674998018542,
              40.01687751602339
            ],
            [
              116.34664356906637,
              40.01695643588796
            ],
            [
              116.34654540584539,
              40.0170454058454
            ],
            [
              116.34645643588796,
              40.01714356906638
            ],
            [
              116.3463775160234,
              40.017249980185426
            ],
            [
              116.34630940629313,
              40.017363614405284
            ],
            [
              116.34625276263111,
              40.01748337736631
            ],
            [
              116.34620813054676,
              40.017608115685704
            ],
            [
              116.34617593987146,
              40.01773662806528
            ],
            [
              116.34615650061899,
              40.017867676860554
            ],
            [
              116.34615,
              40.018
            ],
            [
              116.34615650061899,
              40.01813232313945
            ],
            [
              116.34617593987146,
              40.01826337193472
            ],
            [
              116.34620813054676,
              40.0183918843143
            ],
            [
              116.34625276263111,
              40.01851662263369
            ],
            [
              116.34630940629313,
              40.01863638559472
            ],
            [
              116.3463775160234,
              40.018750019814576
            ],
            [
              116.34645643588796,
              40.018856430933624
            ],
            [
              116.34654540584539,
              40.0189545941546
            ],
            [
              116.34664356906637,
              40.01904356411204
            ],
            [
              116.34674998018542,
              40.01912248397661
            ],
            [
              116.34686361440528,
              40.019190593706874
            ],
            [
              116.3469833773663,
              40.019247237368894
            ],
            [
              116.3470649232663,
              40.01927641495846
            ],
            [
              116.34710001428255,
              40.02550507034207
            ],
            [
              116.34710484494019,
              40.025593259953354
            ],
            [
              116.34711829643041,
              40.0256805514203
            ],
            [
              116.34714023920799,
              40.02576610407837
            ],
            [
              116.34717046195199,
              40.0258490940087
            ],
            [
              116.34720867360087,
              40.02592872197289
            ],
            [
              116.34725450615555,
              40.02600422111012
            ],
            [
              116.34730751822349,
              40.026074864322425
            ],
            [
              116.34736719926947,
              40.02613997127705
            ],
            [
              116.34743297453242,
              40.026198914958435
            ],
            [
              116.34750421056059,
              40.0262511277067
            ],
            [
              116.34758022131209,
              40.02629610668455
            ],
            [
              116.34766027476182,
              40.02633341871982
            ],
            [
              116.34774359995131,
              40.02636270447723
            ],
            [
              116.34782939441344,
              40.02638368191892
            ],
            [
              116.34791683190062,
              40.02639614902067
            ],
            [
              116.34800507034207,
              40.02639998571746
            ],
            [
              116.34809325995334,
              40.02639515505981
            ],
            [
              116.3481805514203,
              40.02638170356959
            ],
            [
              116.34826610407836,
              40.02635976079201
            ],
            [
              116.3483490940087,
              40.02632953804801
            ],
            [
              116.3484287219729,
              40.02629132639913
            ],
            [
              116.34850422111012,
              40.02624549384445
            ],
            [
              116.34857486432242,
              40.02619248177652
            ],
            [
              116.34863997127705,
              40.02613280073053
            ],
            [
              116.34869891495843,
              40.026067025467576
            ],
            [
              116.34875112770669,
              40.025995789439406
            ],
            [
              116.34879610668455,
              40.025919778687914
            ],
            [
              116.34883341871982,
              40.02583972523818
            ],
            [
              116.34886270447723,
              40.025756400048685
            ],
            [
              116.34888368191892,
              40.02567060558656
            ],
            [
              116.34889614902067,
              40.025583168099374
            ],
            [
              116.34889998571745,
              40.02549492965793
            ],
            [
              116.34885804440057,
              40.01805034591037
            ],
            [
              116.3488918843143,
              40.01804186945324
            ],
            [
              116.3490166226337,
              40.017997237368895
            ],
            [
              116.34913638559472,
              40.017940593706875
            ],
            [
              116.34925001981458,
              40.01787248397661
            ],
            [
              116.34935643093363,
              40.01779356411204
            ],
            [
              116.34945459415461,
              40.0177045941546
            ],
            [
              116.34954356411204,
              40.017606430933625
            ],
            [
              116.3496224839766,
              40.01750001981458
            ],
            [
              116.34969059370687,
              40.01738638559472
            ],
            [
              116.34974723736889,
              40.01726662263369
            ],
            [
              116.34979186945324,
              40.0171418843143
            ],
            [
              116.34982406012854,
              40.01701337193472
            ],
            [
              116.34984349938101,
              40.01688232313945
            ],
            [
              116.34985,
              40.01675
            ],
            [
              116.34984349938101,
              40.016617676860555
            ],
            [
              116.34982406012854,
              40.01648662806528
            ],
            [
              116.34979186945324,
              40.016358115685705
            ],
            [
              116.34974723736889,
              40.01623337736631
            ],
            [
              116.34969059370687,
              40.016113614405285
            ],
            [
              116.3496224839766,
              40.01599998018543
            ],
            [
              116.34954356411204,
              40.01589356906638
            ],
            [
              116.34945459415461,
              40.0157954058454
            ],
            [
              116.34935643093363,
              40.015706435887964
            ],
            [
              116.34925001981458,
              40.01562751602339
            ],
            [
              116.34913638559472,
              40.01555940629313
            ],
            [
              116.3490166226337,
              40.01550276263111
            ],
            [
              116.3488918843143,
              40.01545813054676
            ],
            [
              116.34884337190992,
              40.01544597882206
            ],
            [
              116.3488033718279,
              40.00834596426061
            ],
            [
              116.34882406012854,
              40.008263371934724
            ],
            [
              116.348843499381,
              40.00813232313945
            ],
            [
              116.34885,
              40.008
            ],
            [
              116.348843499381,
              40.007867676860556
            ],
            [
              116.34882406012854,
              40.00773662806528
            ],
            [
              116.34879938394599,
              40.0076381152224
            ],
            [
              116.34874798350708,
              39.99851453731711
            ],
            [
              116.34879186945324,
              39.998391884314294
            ],
            [
              116.34882406012854,
              39.99826337193472
            ],
            [
              116.348843499381,
              39.998132323139444
            ],
            [
              116.34885,
              39.998
            ],
            [
              116.348843499381,
              39.99786767686055
            ],
            [
              116.34882406012854,
              39.997736628065276
            ],
            [
              116.34879186945324,
              39.9976081156857
            ],
            [
              116.34874723736888,
              39.99748337736631
            ],
            [
              116.34874211311683,
              39.99747254304562
            ],
            [
              116.34869998571746,
              39.98999492965793
            ],
            [
              116.34869964740732,
              39.9899748098726
            ],
            [
              116.34867681519324,
              39.98915937365589
            ],
            [
              116.34869059370686,
              39.98913638559472
            ],
            [
              116.34874723736888,
              39.98901662263369
            ],
            [
              116.34879186945324,
              39.9888918843143
            ],
            [
              116.34882406012854,
              39.98876337193472
            ],
            [
              116.348843499381,
              39.98863232313945
            ],
            [
              116.34885,
              39.9885
            ],
            [
              116.348843499381,
              39.988367676860555
            ],
            [
              116.34882406012854,
              39.98823662806528
            ],
            [
              116.34879186945324,
              39.988108115685705
            ],
            [
              116.34874723736888,
              39.98798337736631
            ],
            [
              116.34869059370686,
              39.987863614405285
            ],
            [
              116.34863808078369,
              39.98777600188598
            ],
            [
              116.34863668966446,
              39.98772631905624
            ],
            [
              116.34869059370686,
              39.98763638559472
            ],
            [
              116.34874723736888,
              39.98751662263369
            ],
            [
              116.34879186945324,
              39.9873918843143
            ],
            [
              116.34882406012854,
              39.98726337193472
            ],
            [
              116.348843499381,
              39.98713232313945
            ],
            [
              116.34885,
              39.987
            ],
            [
              116.348843499381,
              39.986867676860555
            ],
            [
              116.34882406012854,
              39.98673662806528
            ],
            [
              116.34879186945324,
              39.986608115685705
            ],
            [
              116.34874723736888,
              39.98648337736631
            ],
            [
              116.34869059370686,
              39.986363614405285
            ],
            [
              116.3486224839766,
              39.98624998018543
            ],
            [
              116.34859428766289,
              39.98621196185745
            ],
            [
              116.34833795617679,
              39.97705726592553
            ],
            [
              116.34835643093362,
              39.97704356411204
            ],
            [
              116.3484545941546,
              39.9769545941546
            ],
            [
              116.34854356411203,
              39.97685643093362
            ],
            [
              116.3486224839766,
              39.976750019814574
            ],
            [
              116.34869059370686,
              39.976636385594716
            ],
            [
              116.34874723736888,
              39.97651662263369
            ],
            [
              116.34879186945324,
              39.976391884314296
            ],
            [
              116.34882406012854,
              39.97626337193472
            ],
            [
              116.348843499381,
              39.976132323139446
            ],
            [
              116.34885,
              39.976
            ],
            [
              116.348843499381,
              39.97586767686055
            ],
            [
              116.34882406012854,
              39.97573662806528
            ],
            [
              116.34879186945324,
              39.9756081156857
            ],
            [
              116.34874723736888,
              39.97548337736631
            ],
            [
              116.34869059370686,
              39.97536361440528
            ],
            [
              116.3486224839766,
              39.975249980185424
            ],
            [
              116.34854356411203,
              39.975143569066375
            ],
            [
              116.3484545941546,
              39.9750454058454
            ],
            [
              116.34835643093362,
              39.97495643588796
            ],
            [
              116.34827749370832,
              39.9748978920517
            ],
            [
              116.34806266562919,
              39.96722546065385
            ],
            [
              116.34813638559471,
              39.967190593706874
            ],
            [
              116.34825001981457,
              39.96712248397661
            ],
            [
              116.34835643093362,
              39.96704356411204
            ],
            [
              116.3484545941546,
              39.9669545941546
            ],
            [
              116.34854356411203,
              39.966856430933625
            ],
            [
              116.3486224839766,
              39.966750019814576
            ],
            [
              116.34869059370686,
              39.96663638559472
            ],
            [
              116.34874723736888,
              39.96651662263369
            ],
            [
              116.34879186945324,
              39.9663918843143
            ],
            [
              116.34882406012854,
              39.96626337193472
            ],
            [
              116.348843499381,
              39.96613232313945
            ],
            [
              116.34885,
              39.966
            ],
            [
              116.348843499381,
              39.965867676860555
            ],
            [
              116.34882406012854,
              39.96573662806528
            ],
            [
              116.34879186945324,
              39.965608115685704
            ],
            [
              116.34874723736888,
              39.96548337736631
            ],
            [
              116.34869059370686,
              39.965363614405284
            ],
            [
              116.3486224839766,
              39.965249980185426
            ],
            [
              116.34854356411203,
              39.96514356906638
            ],
            [
              116.3484545941546,
              39.9650454058454
            ],
            [
              116.34835643093362,
              39.96495643588796
            ],
            [
              116.34825001981457,
              39.96487751602339
            ],
            [
              116.34813638559471,
              39.96480940629313
            ],
            [
              116.3480166226337,
              39.96475276263111
            ],
            [
              116.34800520642507,
              39.96474867784635
            ],
            [
              116.34817685321504,
              39.95616633834869
            ],
            [
              116.34825001981457,
              39.95612248397661
            ],
            [
              116.34835643093362,
              39.956043564112036
            ],
            [
              116.3484545941546,
              39.9559545941546
            ],
            [
              116.34854356411203,
              39.95585643093362
            ],
            [
              116.3486224839766,
              39.95575001981457
            ],
            [
              116.34869059370686,
              39.955636385594715
            ],
            [
              116.34874723736888,
              39.95551662263369
            ],
            [
              116.34879186945324,
              39.955391884314295
            ],
            [
              116.34882406012854,
              39.95526337193472
            ],
            [
              116.348843499381,
              39.955132323139445
            ],
            [
              116.34885,
              39.955
            ],
            [
              116.348843499381,
              39.95486767686055
            ],
            [
              116.34882406012854,
              39.95473662806528
            ],
            [
              116.34879186945324,
              39.9546081156857
            ],
            [
              116.34874723736888,
              39.95448337736631
            ],
            [
              116.34869059370686,
              39.95436361440528
            ],
            [
              116.3486224839766,
              39.95424998018542
            ],
            [
              116.34854356411203,
              39.954143569066375
            ],
            [
              116.3484545941546,
              39.9540454058454
            ],
            [
              116.34835643093362,
              39.95395643588796
            ],
            [
              116.34825001981457,
              39.95387751602339
            ],
            [
              116.34822295411269,
              39.953861293465984
            ],
            [
              116.34833500691695,
              39.948258653252665
            ],
            [
              116.34836767686056,
              39.948263499381014
            ],
            [
              116.3485,
              39.94827000000001
            ],
            [
              116.34863232313944,
              39.948263499381014
            ],
            [
              116.34876337193472,
              39.94824406012855
            ],
            [
              116.3488918843143,
              39.948211869453246
            ],
            [
              116.3490166226337,
              39.9481672373689
            ],
            [
              116.34913638559472,
              39.94811059370688
            ],
            [
              116.34925001981458,
              39.948042483976614
            ],
            [
              116.34935643093363,
              39.947963564112044
            ],
            [
              116.34945459415461,
              39.947874594154605
            ],
            [
              116.34954356411204,
              39.94777643093363
            ],
            [
              116.3496224839766,
              39.94767001981458
            ],
            [
              116.34969059370687,
              39.94755638559472
            ],
            [
              116.34974723736889,
              39.947436622633695
            ],
            [
              116.34979186945324,
              39.9473118843143
            ],
            [
              116.34982406012854,
              39.94718337193473
            ],
            [
              116.34984349938101,
              39.94705232313945
            ],
            [
              116.34985,
              39.946920000000006
            ],
            [
              116.34984349938101,
              39.94678767686056
            ],
            [
              116.34982406012854,
              39.946656628065284
            ],
            [
              116.34979186945324,
              39.94652811568571
            ],
            [
              116.34974723736889,
              39.946403377366316
            ],
            [
              116.34969059370687,
              39.94628361440529
            ],
            [
              116.3496224839766,
              39.94616998018543
            ],
            [
              116.34954356411204,
              39.94606356906638
            ],
            [
              116.34945459415461,
              39.945965405845406
            ],
            [
              116.34935643093363,
              39.94587643588797
            ],
            [
              116.34925001981458,
              39.9457975160234
            ],
            [
              116.34913638559472,
              39.94572940629313
            ],
            [
              116.3490166226337,
              39.94567276263111
            ],
            [
              116.3488918843143,
              39.945628130546766
            ],
            [
              116.34876337193472,
              39.94559593987146
            ],
            [
              116.34871324023398,
              39.94558850353612
            ],
            [
              116.34874723736888,
              39.94551662263369
            ],
            [
              116.34879186945324,
              39.9453918843143
            ],
            [
              116.34882406012854,
              39.94526337193472
            ],
            [
              116.348843499381,
              39.94513232313945
            ],
            [
              116.34885,
              39.945
            ],
            [
              116.348843499381,
              39.944867676860554
            ],
            [
              116.34882406012854,
              39.94473662806528
            ],
            [
              116.34879186945324,
              39.9446081156857
            ],
            [
              116.34874723736888,
              39.94448337736631
            ]
          ]
        ]
      }
    }
  ]
}
